{
  "norad_id": 48280,
  "name": "STARLINK-2565",
  "history": [
    {
      "epoch": "2026-03-28T17:45:41.730912Z",
      "apogee_km": 548.1818808369217,
      "perigee_km": 546.2531696016486,
      "latitude_deg": -3.1694711945641436e-05,
      "longitude_deg": -81.482681028585,
      "height_km": 547.9812337911952,
      "semi_major_axis_km": 6925.354525219285,
      "eccentricity": 0.00013925,
      "inclination_deg": 53.0564,
      "raan_deg": 11.0974,
      "arg_perigee_deg": 83.2181,
      "mean_anomaly_deg": 276.8966,
      "mean_motion_rev_day": 15.06398053
    },
    {
      "epoch": "2026-03-29T04:54:27.802080Z",
      "apogee_km": 548.1621089885275,
      "perigee_km": 546.1496188822684,
      "latitude_deg": 2.5557016880572108e-05,
      "longitude_deg": 108.78334326250229,
      "height_km": 547.851217908832,
      "semi_major_axis_km": 6925.292863935398,
      "eccentricity": 0.0001453,
      "inclination_deg": 53.0563,
      "raan_deg": 9.0131,
      "arg_perigee_deg": 79.5702,
      "mean_anomaly_deg": 280.5451,
      "mean_motion_rev_day": 15.06418172
    },
    {
      "epoch": "2026-03-30T01:36:28.547712Z",
      "apogee_km": 548.1604818154419,
      "perigee_km": 546.214050177241,
      "latitude_deg": 3.465576754002808e-06,
      "longitude_deg": 153.55889312366824,
      "height_km": 548.0432514272292,
      "semi_major_axis_km": 6925.324265996342,
      "eccentricity": 0.00014053,
      "inclination_deg": 53.0557,
      "raan_deg": 5.1419,
      "arg_perigee_deg": 88.7344,
      "mean_anomaly_deg": 271.3806,
      "mean_motion_rev_day": 15.06407926
    },
    {
      "epoch": "2026-03-30T11:09:42.269184Z",
      "apogee_km": 548.1732809825153,
      "perigee_km": 546.1358602024484,
      "latitude_deg": 1.4432927517886235e-05,
      "longitude_deg": 8.073067889153752,
      "height_km": 548.1272818917531,
      "semi_major_axis_km": 6925.291570592482,
      "eccentricity": 0.0001471,
      "inclination_deg": 53.0557,
      "raan_deg": 3.3556,
      "arg_perigee_deg": 95.3686,
      "mean_anomaly_deg": 264.7471,
      "mean_motion_rev_day": 15.06418594
    },
    {
      "epoch": "2026-03-31T11:02:23.304480Z",
      "apogee_km": 545.9067976855767,
      "perigee_km": 543.8524617308776,
      "latitude_deg": -1.6293003367993026e-05,
      "longitude_deg": 4.449228473468798,
      "height_km": 545.7242258838296,
      "semi_major_axis_km": 6923.016629708227,
      "eccentricity": 0.00014837,
      "inclination_deg": 53.0544,
      "raan_deg": 358.8834,
      "arg_perigee_deg": 88.1627,
      "mean_anomaly_deg": 271.9532,
      "mean_motion_rev_day": 15.07161181
    },
    {
      "epoch": "2026-04-01T20:00:01.999008Z",
      "apogee_km": 535.2896936964789,
      "perigee_km": 532.660326287878,
      "latitude_deg": -52.74690372621373,
      "longitude_deg": 121.92475944708204,
      "height_km": 553.0064847157664,
      "semi_major_axis_km": 6912.112009992178,
      "eccentricity": 0.0001902,
      "inclination_deg": 53.068,
      "raan_deg": 352.7013,
      "arg_perigee_deg": 141.1768,
      "mean_anomaly_deg": 122.3879,
      "mean_motion_rev_day": 15.10729157
    }
  ]
}